{"type": "FeatureCollection", "features": [ {"type": "Feature", "properties": {"norad_id": 66911, "name": "1998-067XX", "group": "stations", "lat": -47.48019304270416, "lon": -36.30342985893687, "alt_km": 408.52206128365015, "timestamp": "2025-12-24T11:32:58.752812+00:00", "meta": {"OBJECT_NAME": "1998-067XX", "OBJECT_ID": "1998-067XX", "EPOCH": "2025-12-23T23:40:14.947968", "MEAN_MOTION": 15.53537628, "ECCENTRICITY": 0.0003645, "INCLINATION": 51.6309, "RA_OF_ASC_NODE": 86.3921, "ARG_OF_PERICENTER": 276.926, "MEAN_ANOMALY": 83.1316, "EPHEMERIS_TYPE": 0, "CLASSIFICATION_TYPE": "U", "NORAD_CAT_ID": 66911, "ELEMENT_SET_NO": 999, "REV_AT_EPOCH": 335, "BSTAR": 0.0011221, "MEAN_MOTION_DOT": 0.00072904, "MEAN_MOTION_DDOT": 0}, "tle": {"line1": "1 66911U 98067XX  25357.98628412  .00072904  00000+0  11221-2 0  9995", "line2": "2 66911  51.6309  86.3921 0003645 276.9260  83.1316 15.53537628  3356"}}, "geometry": {"type": "Point", "coordinates": [-36.30342985893687, -47.48019304270416]}}, {"type": "Feature", "properties": {"norad_id": 66912, "name": "1998-067XY", "group": "stations", "lat": -0.8651917127464355, "lon": -95.24707993432206, "alt_km": 411.66429183147466, "timestamp": "2025-12-24T11:32:58.752822+00:00", "meta": {"OBJECT_NAME": "1998-067XY", "OBJECT_ID": "1998-067XY", "EPOCH": "2025-12-23T06:57:34.859520", "MEAN_MOTION": 15.52133019, "ECCENTRICITY": 0.00038791, "INCLINATION": 51.6317, "RA_OF_ASC_NODE": 89.9922, "ARG_OF_PERICENTER": 281.5198, "MEAN_ANOMALY": 78.5356, "EPHEMERIS_TYPE": 0, "CLASSIFICATION_TYPE": "U", "NORAD_CAT_ID": 66912, "ELEMENT_SET_NO": 999, "REV_AT_EPOCH": 324, "BSTAR": 0.00084098106, "MEAN_MOTION_DOT": 0.00051669, "MEAN_MOTION_DDOT": 0}, "tle": {"line1": "1 66912U 98067XY  25357.28998680  .00051669  00000+0  84098-3 0  9994", "line2": "2 66912  51.6317  89.9922 0003879 281.5198  78.5356 15.52133019  3242"}}, "geometry": {"type": "Point", "coordinates": [-95.24707993432206, -0.8651917127464355]}}]}